[{"OBJECT_NAME":"STARLINK-33534","OBJECT_ID":"2025-071G","EPOCH":"2026-03-09T11:01:56.516160","MEAN_MOTION":15.30191318,"ECCENTRICITY":0.00012708,"INCLINATION":53.1591,"RA_OF_ASC_NODE":141.0654,"ARG_OF_PERICENTER":89.8748,"MEAN_ANOMALY":270.2398,"EPHEMERIS_TYPE":0,"CLASSIFICATION_TYPE":"U","NORAD_CAT_ID":63499,"ELEMENT_SET_NO":999,"REV_AT_EPOCH":5271,"BSTAR":0.00054806534,"MEAN_MOTION_DOT":0.00015903,"MEAN_MOTION_DDOT":0},{"OBJECT_NAME":"AZUR (GRS A)","OBJECT_ID":"1969-097A","EPOCH":"2026-03-09T21:41:10.048992","MEAN_MOTION":15.2598686,"ECCENTRICITY":0.02451425,"INCLINATION":102.6572,"RA_OF_ASC_NODE":142.7505,"ARG_OF_PERICENTER":125.1196,"MEAN_ANOMALY":237.3267,"EPHEMERIS_TYPE":0,"CLASSIFICATION_TYPE":"U","NORAD_CAT_ID":4221,"ELEMENT_SET_NO":999,"REV_AT_EPOCH":71023,"BSTAR":0.0010311441,"MEAN_MOTION_DOT":0.00065195,"MEAN_MOTION_DDOT":0}]
